{
  "type": "FeatureCollection",
  "features": [
    {
      "type": "Feature",
      "properties": {
        "norad_id": 54741,
        "name": "GALAXY 35 (G-35)",
        "group": "intelsat",
        "lat": 0.01837377748261334,
        "lon": 100.59996404921382,
        "alt_km": 35797.12356305117,
        "timestamp": "2025-12-09T07:41:32.871513+00:00",
        "meta_object_name": "GALAXY 35 (G-35)",
        "meta_object_id": "2022-170A",
        "meta_epoch": "2025-12-08T21:43:17.342112",
        "meta_mean_motion": 1.00271043,
        "meta_eccentricity": 0.00026619,
        "meta_inclination": 0.0213,
        "meta_ra_of_asc_node": 80.421,
        "meta_arg_of_pericenter": 183.9163,
        "meta_mean_anomaly": 46.3017,
        "meta_ephemeris_type": 0,
        "meta_classification_type": "U",
        "meta_norad_cat_id": 54741,
        "meta_element_set_no": 999,
        "meta_rev_at_epoch": 1098,
        "meta_bstar": 0,
        "meta_mean_motion_dot": -1.6e-06,
        "meta_mean_motion_ddot": 0,
        "tle_line1": "1 54741U 22170A   25342.90506183 -.00000160  00000+0  00000+0 0  9997",
        "tle_line2": "2 54741   0.0213  80.4210 0002661 183.9163  46.3017  1.00271043 10987"
      },
      "geometry": {
        "type": "Point",
        "coordinates": [
          100.59996404921382,
          0.01837377748261334
        ]
      }
    },
    {
      "type": "Feature",
      "properties": {
        "norad_id": 54742,
        "name": "GALAXY 36 (G-36)",
        "group": "intelsat",
        "lat": 0.022679388599520206,
        "lon": 104.69275227129445,
        "alt_km": 35788.7826075267,
        "timestamp": "2025-12-09T07:41:32.871524+00:00",
        "meta_object_name": "GALAXY 36 (G-36)",
        "meta_object_id": "2022-170B",
        "meta_epoch": "2025-12-08T21:44:24.734976",
        "meta_mean_motion": 1.00270813,
        "meta_eccentricity": 5.697e-05,
        "meta_inclination": 0.0079,
        "meta_ra_of_asc_node": 28.8642,
        "meta_arg_of_pericenter": 254.6251,
        "meta_mean_anomaly": 31.516,
        "meta_ephemeris_type": 0,
        "meta_classification_type": "U",
        "meta_norad_cat_id": 54742,
        "meta_element_set_no": 999,
        "meta_rev_at_epoch": 1086,
        "meta_bstar": 0,
        "meta_mean_motion_dot": -1.83e-06,
        "meta_mean_motion_ddot": 0,
        "tle_line1": "1 54742U 22170B   25342.90584184 -.00000183  00000+0  00000+0 0  9990",
        "tle_line2": "2 54742   0.0079  28.8642 0000569 254.6251  31.5160  1.00270813 10868"
      },
      "geometry": {
        "type": "Point",
        "coordinates": [
          104.69275227129445,
          0.022679388599520206
        ]
      }
    },
    {
      "type": "Feature",
      "properties": {
        "norad_id": 57493,
        "name": "GALAXY 37 (G-37)",
        "group": "intelsat",
        "lat": 0.03098982016125367,
        "lon": 66.70700408887821,
        "alt_km": 35795.715029102976,
        "timestamp": "2025-12-09T07:41:32.871536+00:00",
        "meta_object_name": "GALAXY 37 (G-37)",
        "meta_object_id": "2023-112A",
        "meta_epoch": "2025-12-08T21:33:25.787232",
        "meta_mean_motion": 1.0027141,
        "meta_eccentricity": 0.00023504,
        "meta_inclination": 0.0105,
        "meta_ra_of_asc_node": 333.573,
        "meta_arg_of_pericenter": 289.258,
        "meta_mean_anomaly": 11.4268,
        "meta_ephemeris_type": 0,
        "meta_classification_type": "U",
        "meta_norad_cat_id": 57493,
        "meta_element_set_no": 999,
        "meta_rev_at_epoch": 863,
        "meta_bstar": 0,
        "meta_mean_motion_dot": 5e-07,
        "meta_mean_motion_ddot": 0,
        "tle_line1": "1 57493U 23112A   25342.89821513  .00000050  00000+0  00000+0 0  9993",
        "tle_line2": "2 57493   0.0105 333.5730 0002350 289.2580  11.4268  1.00271410  8639"
      },
      "geometry": {
        "type": "Point",
        "coordinates": [
          66.70700408887821,
          0.03098982016125367
        ]
      }
    }
  ]
}